[{"OBJECT_NAME":"ONEWEB-0566","OBJECT_ID":"2023-043R","EPOCH":"2026-06-19T05:48:55.257408","MEAN_MOTION":13.21827165,"ECCENTRICITY":0.0001925,"INCLINATION":87.9254,"RA_OF_ASC_NODE":243.5629,"ARG_OF_PERICENTER":108.7807,"MEAN_ANOMALY":251.3536,"EPHEMERIS_TYPE":0,"CLASSIFICATION_TYPE":"U","NORAD_CAT_ID":56061,"ELEMENT_SET_NO":999,"REV_AT_EPOCH":15850,"BSTAR":0.00014131,"MEAN_MOTION_DOT":7.1e-07,"MEAN_MOTION_DDOT":0.0},{"OBJECT_NAME":"ONEWEB-0568","OBJECT_ID":"2023-043S","EPOCH":"2026-06-19T05:09:23.343264","MEAN_MOTION":13.16594433,"ECCENTRICITY":0.0002338,"INCLINATION":87.9092,"RA_OF_ASC_NODE":228.3687,"ARG_OF_PERICENTER":94.6257,"MEAN_ANOMALY":265.5141,"EPHEMERIS_TYPE":0,"CLASSIFICATION_TYPE":"U","NORAD_CAT_ID":56062,"ELEMENT_SET_NO":999,"REV_AT_EPOCH":15924,"BSTAR":0.00029509999999999996,"MEAN_MOTION_DOT":1.26e-06,"MEAN_MOTION_DDOT":0.0},{"OBJECT_NAME":"ONEWEB-0574","OBJECT_ID":"2023-043T","EPOCH":"2026-06-19T05:39:13.826016","MEAN_MOTION":13.21824312,"ECCENTRICITY":0.0002058,"INCLINATION":87.9263,"RA_OF_ASC_NODE":243.5669,"ARG_OF_PERICENTER":94.0061,"MEAN_ANOMALY":266.1308,"EPHEMERIS_TYPE":0,"CLASSIFICATION_TYPE":"U","NORAD_CAT_ID":56063,"ELEMENT_SET_NO":999,"REV_AT_EPOCH":15854,"BSTAR":0.00021470000000000001,"MEAN_MOTION_DOT":1.02e-06,"MEAN_MOTION_DDOT":0.0},{"OBJECT_NAME":"ONEWEB-0575","OBJECT_ID":"2023-043U","EPOCH":"2026-06-19T05:00:16.335360","MEAN_MOTION":13.16594168,"ECCENTRICITY":0.0002232,"INCLINATION":87.9093,"RA_OF_ASC_NODE":228.3663,"ARG_OF_PERICENTER":86.7841,"MEAN_ANOMALY":273.3545,"EPHEMERIS_TYPE":0,"CLASSIFICATION_TYPE":"U","NORAD_CAT_ID":56064,"ELEMENT_SET_NO":999,"REV_AT_EPOCH":15923,"BSTAR":9.414200000000001e-05,"MEAN_MOTION_DOT":4.9e-07,"MEAN_MOTION_DDOT":0.0},{"OBJECT_NAME":"ONEWEB-0576","OBJECT_ID":"2023-043V","EPOCH":"2026-06-19T04:32:54.202272","MEAN_MOTION":13.16593993,"ECCENTRICITY":0.0002151,"INCLINATION":87.9098,"RA_OF_ASC_NODE":228.378,"ARG_OF_PERICENTER":90.7639,"MEAN_ANOMALY":269.3738,"EPHEMERIS_TYPE":0,"CLASSIFICATION_TYPE":"U","NORAD_CAT_ID":56065,"ELEMENT_SET_NO":999,"REV_AT_EPOCH":15922,"BSTAR":-0.00033693,"MEAN_MOTION_DOT":-1.16e-06,"MEAN_MOTION_DDOT":0.0},{"OBJECT_NAME":"ONEWEB-0577","OBJECT_ID":"2023-043W","EPOCH":"2026-06-19T04:42:01.971360","MEAN_MOTION":13.16593906,"ECCENTRICITY":0.0002146,"INCLINATION":87.9099,"RA_OF_ASC_NODE":228.3743,"ARG_OF_PERICENTER":75.979,"MEAN_ANOMALY":284.158,"EPHEMERIS_TYPE":0,"CLASSIFICATION_TYPE":"U","NORAD_CAT_ID":56066,"ELEMENT_SET_NO":999,"REV_AT_EPOCH":15925,"BSTAR":-0.00017533000000000002,"MEAN_MOTION_DOT":-5.4e-07,"MEAN_MOTION_DDOT":0.0},{"OBJECT_NAME":"ONEWEB-0578","OBJECT_ID":"2023-043X","EPOCH":"2026-06-19T05:19:51.536928","MEAN_MOTION":13.21824713,"ECCENTRICITY":0.0002325,"INCLINATION":87.9255,"RA_OF_ASC_NODE":243.5676,"ARG_OF_PERICENTER":96.2875,"MEAN_ANOMALY":263.8524,"EPHEMERIS_TYPE":0,"CLASSIFICATION_TYPE":"U","NORAD_CAT_ID":56067,"ELEMENT_SET_NO":999,"REV_AT_EPOCH":15850,"BSTAR":0.00026298,"MEAN_MOTION_DOT":1.22e-06,"MEAN_MOTION_DDOT":0.0},{"OBJECT_NAME":"ONEWEB-0579","OBJECT_ID":"2023-043Y","EPOCH":"2026-06-19T05:07:45.473664","MEAN_MOTION":13.21826281,"ECCENTRICITY":0.000176,"INCLINATION":87.9261,"RA_OF_ASC_NODE":243.5659,"ARG_OF_PERICENTER":103.7962,"MEAN_ANOMALY":256.3368,"EPHEMERIS_TYPE":0,"CLASSIFICATION_TYPE":"U","NORAD_CAT_ID":56068,"ELEMENT_SET_NO":999,"REV_AT_EPOCH":15851,"BSTAR":1.9007e-05,"MEAN_MOTION_DOT":2.1e-07,"MEAN_MOTION_DDOT":0.0},{"OBJECT_NAME":"ONEWEB-0581","OBJECT_ID":"2023-043Z","EPOCH":"2026-06-19T04:51:08.003808","MEAN_MOTION":13.1659304,"ECCENTRICITY":0.0002007,"INCLINATION":87.9096,"RA_OF_ASC_NODE":228.3843,"ARG_OF_PERICENTER":81.2651,"MEAN_ANOMALY":278.8707,"EPHEMERIS_TYPE":0,"CLASSIFICATION_TYPE":"U","NORAD_CAT_ID":56069,"ELEMENT_SET_NO":999,"REV_AT_EPOCH":15922,"BSTAR":-0.00014787,"MEAN_MOTION_DOT":-4.4e-07,"MEAN_MOTION_DDOT":0.0},{"OBJECT_NAME":"ONEWEB-0609","OBJECT_ID":"2023-043AA","EPOCH":"2026-06-19T05:38:17.550240","MEAN_MOTION":13.1554986,"ECCENTRICITY":0.0002023,"INCLINATION":87.9001,"RA_OF_ASC_NODE":258.8037,"ARG_OF_PERICENTER":102.847,"MEAN_ANOMALY":257.2887,"EPHEMERIS_TYPE":0,"CLASSIFICATION_TYPE":"U","NORAD_CAT_ID":56070,"ELEMENT_SET_NO":999,"REV_AT_EPOCH":15670,"BSTAR":0.00038984,"MEAN_MOTION_DOT":1.6e-06,"MEAN_MOTION_DDOT":0.0},{"OBJECT_NAME":"ONEWEB-0613","OBJECT_ID":"2023-043AB","EPOCH":"2026-06-19T05:34:51.270240","MEAN_MOTION":13.15550159,"ECCENTRICITY":0.0001841,"INCLINATION":87.8997,"RA_OF_ASC_NODE":258.8164,"ARG_OF_PERICENTER":108.6347,"MEAN_ANOMALY":251.4984,"EPHEMERIS_TYPE":0,"CLASSIFICATION_TYPE":"U","NORAD_CAT_ID":56071,"ELEMENT_SET_NO":999,"REV_AT_EPOCH":15670,"BSTAR":0.0005519699999999999,"MEAN_MOTION_DOT":2.21e-06,"MEAN_MOTION_DDOT":0.0},{"OBJECT_NAME":"ONEWEB-0630","OBJECT_ID":"2023-043AC","EPOCH":"2026-06-19T05:28:01.290144","MEAN_MOTION":13.15547385,"ECCENTRICITY":0.0001798,"INCLINATION":87.9005,"RA_OF_ASC_NODE":258.7888,"ARG_OF_PERICENTER":105.1197,"MEAN_ANOMALY":255.0133,"EPHEMERIS_TYPE":0,"CLASSIFICATION_TYPE":"U","NORAD_CAT_ID":56072,"ELEMENT_SET_NO":999,"REV_AT_EPOCH":15669,"BSTAR":0.00023956,"MEAN_MOTION_DOT":1.03e-06,"MEAN_MOTION_DDOT":0.0},{"OBJECT_NAME":"ONEWEB-0632","OBJECT_ID":"2023-043AD","EPOCH":"2026-06-19T05:21:11.407680","MEAN_MOTION":13.15548984,"ECCENTRICITY":0.0001898,"INCLINATION":87.9002,"RA_OF_ASC_NODE":258.8078,"ARG_OF_PERICENTER":95.756,"MEAN_ANOMALY":264.3786,"EPHEMERIS_TYPE":0,"CLASSIFICATION_TYPE":"U","NORAD_CAT_ID":56073,"ELEMENT_SET_NO":999,"REV_AT_EPOCH":15669,"BSTAR":0.00031863000000000003,"MEAN_MOTION_DOT":1.33e-06,"MEAN_MOTION_DDOT":0.0},{"OBJECT_NAME":"ONEWEB-0633","OBJECT_ID":"2023-043AE","EPOCH":"2026-06-19T05:12:03.048480","MEAN_MOTION":13.15546758,"ECCENTRICITY":0.0001885,"INCLINATION":87.901,"RA_OF_ASC_NODE":258.7847,"ARG_OF_PERICENTER":112.9595,"MEAN_ANOMALY":247.1734,"EPHEMERIS_TYPE":0,"CLASSIFICATION_TYPE":"U","NORAD_CAT_ID":56074,"ELEMENT_SET_NO":999,"REV_AT_EPOCH":15667,"BSTAR":0.00027113,"MEAN_MOTION_DOT":1.15e-06,"MEAN_MOTION_DDOT":0.0},{"OBJECT_NAME":"ONEWEB-0634","OBJECT_ID":"2023-043AF","EPOCH":"2026-06-19T04:51:31.608288","MEAN_MOTION":13.15548963,"ECCENTRICITY":0.000234,"INCLINATION":87.9002,"RA_OF_ASC_NODE":258.8275,"ARG_OF_PERICENTER":103.2876,"MEAN_ANOMALY":256.8515,"EPHEMERIS_TYPE":0,"CLASSIFICATION_TYPE":"U","NORAD_CAT_ID":56075,"ELEMENT_SET_NO":999,"REV_AT_EPOCH":15666,"BSTAR":-0.00015651,"MEAN_MOTION_DOT":-4.6e-07,"MEAN_MOTION_DDOT":0.0},{"OBJECT_NAME":"ONEWEB-0635","OBJECT_ID":"2023-043AG","EPOCH":"2026-06-19T04:44:39.328224","MEAN_MOTION":13.15548017,"ECCENTRICITY":0.0001942,"INCLINATION":87.9012,"RA_OF_ASC_NODE":258.791,"ARG_OF_PERICENTER":92.6599,"MEAN_ANOMALY":267.4754,"EPHEMERIS_TYPE":0,"CLASSIFICATION_TYPE":"U","NORAD_CAT_ID":56076,"ELEMENT_SET_NO":999,"REV_AT_EPOCH":15669,"BSTAR":-0.00065372,"MEAN_MOTION_DOT":-2.33e-06,"MEAN_MOTION_DDOT":0.0}]